STARLINK-36156          
1 67006C 25293D   26094.97756944 -.00043901  00000+0 -36782-2 0   944
2 67006  70.0028  28.3239 0002973 265.3754  27.4091 14.98361804    16
STARLINK-36123          
1 67007C 25293E   26094.93312500 -.00038655  00000+0 -32382-2 0   949
2 67007  70.0029  28.1843 0003123 269.0283   9.1657 14.98364894    10
STARLINK-36163          
1 67008C 25293F   26094.94423611 -.00042435  00000+0 -35549-2 0   946
2 67008  70.0028  28.3095 0002943 271.1611 291.9052 14.98366313    17
STARLINK-36118          
1 67009C 25293G   26094.98590278 -.00041840  00000+0 -35054-2 0   945
2 67009  70.0030  28.1017 0003903 269.4930 248.2898 14.98360836    11
STARLINK-36189          
1 67010C 25293H   26094.96784722 -.00049623  00000+0 -41577-2 0   948
2 67010  70.0029  28.0210 0002802 271.7306 261.2366 14.98365282    10
STARLINK-36167          
1 67011C 25293J   26094.97548611 -.00040948  00000+0 -34309-2 0   941
2 67011  70.0029  28.0266 0002913 263.9562 287.6913 14.98359826    19
STARLINK-36175          
1 67012C 25293K   26094.94840278 -.00041056  00000+0 -34398-2 0   942
2 67012  70.0028  28.4212 0002805 265.1620 207.8280 14.98362278    19
STARLINK-35856          
1 67013C 25293L   26094.99215278 -.00040668  00000+0 -34076-2 0   945
2 67013  70.0028  28.2618 0003128 270.1832 123.7405 14.98356780    14
STARLINK-36207          
1 67014C 25293M   26094.96229167 -.00041873  00000+0 -35081-2 0   941
2 67014  70.0029  28.2862 0002860 274.2969   3.6230 14.98363036    19
STARLINK-36093          
1 67015C 25293N   26094.91159722 -.00032465  00000+0 -27200-2 0   947
2 67015  70.0034  28.3127 0002876 270.3962 184.1815 14.98357355    19
STARLINK-36120          
1 67016C 25293P   26095.00881944 -.00050022  00000+0 -41906-2 0   956
2 67016  70.0029  28.1178 0003335 270.5246 303.3208 14.98368284    10
STARLINK-35498          
1 67017C 25293Q   26094.99006944 -.00038393  00000+0 -32171-2 0   943
2 67017  70.0029  28.0645 0002744 264.3974 298.3613 14.98355673    12
STARLINK-36106          
1 67018C 25293R   26094.94562500 -.00038900  00000+0 -32594-2 0   947
2 67018  70.0031  28.1257 0002727 271.9969  96.1142 14.98357026    10
STARLINK-35688          
1 67019C 25293S   26094.99909722 -.00026198  00000+0 -21966-2 0   941
2 67019  70.0028  28.3187 0003068 268.7562  94.2579 14.98324845    19
STARLINK-36172          
1 67020C 25293T   26094.90534722 -.00030701  00000+0 -25718-2 0   942
2 67020  70.0029  28.3541 0002898 270.1500 127.3316 14.98362602    15
STARLINK-36184          
1 67021C 25293U   26094.98868056 -.00036248  00000+0 -30376-2 0   949
2 67021  70.0028  28.2448 0002747 267.2727 129.5458 14.98351027    11
STARLINK-36209          
1 67022C 25293V   26094.97756944 -.00049919  00000+0 -41825-2 0   941
2 67022  70.0029  28.0708 0002661 270.5492 246.4327 14.98365037    11
STARLINK-36191          
1 67023C 25293W   26094.93243056 -.00036562  00000+0 -30632-2 0   947
2 67023  70.0029  28.4366 0002860 264.4824 143.9943 14.98360807    13
STARLINK-36192          
1 67024C 25293X   26094.93312500 -.00040241  00000+0 -33713-2 0   941
2 67024  70.0029  28.3331 0002765 270.8493 231.4042 14.98363753    18
STARLINK-36178          
1 67025C 25293Y   26094.92131944 -.00035533  00000+0 -29769-2 0   946
2 67025  70.0030  28.2633 0002878 270.6108 258.0078 14.98361048    10
STARLINK-36176          
1 67026C 25293Z   26094.97548611 -.00040013  00000+0 -33527-2 0   941
2 67026  70.0029  27.9997 0002704 263.5418 309.7252 14.98358214    10
STARLINK-36171          
1 67027C 25293AA  26095.00673611 -.00034873  00000+0 -29221-2 0   950
2 67027  70.0029  27.9485 0003021 265.7345  93.5471 14.98352480    19
STARLINK-36132          
1 67028C 25293AB  26094.96437500 -.00037861  00000+0 -31721-2 0   947
2 67028  70.0028  28.3294 0003287 272.1071 331.1401 14.98359314    11
STARLINK-36190          
1 67029C 25293AC  26094.90187500 -.00027344  00000+0 -22912-2 0   941
2 67029  70.0028  28.5390 0002743 270.9228 310.2656 14.98351310    15
STARLINK-36138          
1 67030C 25294A   26095.01229167  .00020065  00000+0  72747-3 0   957
2 67030  43.0044 249.5310 0001341 258.4573 103.0221 15.27536748    18
STARLINK-36150          
1 67031C 25294B   26095.02131944  .00028089  00000+0  10198-2 0   959
2 67031  43.0013 248.9319 0001276 281.6021 356.0030 15.27487156    16
STARLINK-36131          
1 67032C 25294C   26095.00465278  .00029825  00000+0  10813-2 0   951
2 67032  43.0000 249.1826 0001360 279.7183 202.4309 15.27532136    12
STARLINK-36137          
1 67033C 25294D   26094.91506944  .00072694  00000+0  26357-2 0   948
2 67033  43.0007 249.6364 0001559 275.0608  95.1102 15.27508003    17
STARLINK-36140          
1 67034C 25294E   26094.99909722  .00027534  00000+0  99875-3 0   947
2 67034  43.0022 249.8041 0001630 273.9809 289.9449 15.27515601    18
STARLINK-36085          
1 67035C 25294F   26094.93729167  .00048923  00000+0  17740-2 0   940
2 67035  43.0022 250.1827 0001838 279.4445 290.0823 15.27515885    16
STARLINK-36125          
1 67036C 25294G   26094.96020833  .00054324  00000+0  19684-2 0   949
2 67036  43.0021 249.6652 0001534 281.2278 217.2008 15.27537732    14
STARLINK-35732          
1 67037C 25294H   26094.91090278  .00076036  00000+0  27573-2 0   945
2 67037  43.0041 250.2319 0001677 278.1392 188.5114 15.27501826    18
STARLINK-35775          
1 67038C 25294J   26095.01854167  .00018283  00000+0  66252-3 0   952
2 67038  42.9999 249.1669 0001513 273.9239 256.3469 15.27553681    19
STARLINK-35705          
1 67039C 25294K   26095.02479167  .00030487  00000+0  11043-2 0   954
2 67039  43.0005 249.1951 0001544 219.7682 316.5248 15.27561524    17
STARLINK-35786          
1 67040C 25294L   26094.92618056  .00051934  00000+0  18833-2 0   949
2 67040  43.0040 250.1160 0001671 276.9408 288.0141 15.27512676    13
STARLINK-35765          
1 67041C 25294M   26095.00673611  .00021953  00000+0  79577-3 0   950
2 67041  43.0040 249.5039 0001543 279.5530  72.5785 15.27541392    11
STARLINK-35773          
1 67042C 25294N   26094.92131944  .00015901  00000+0  57682-3 0   947
2 67042  43.0032 249.9572 0001446 276.9141 339.1455 15.27520022    13
STARLINK-35901          
1 67043C 25294P   26095.01368056  .00019467  00000+0  70493-3 0   952
2 67043  43.0046 249.5350 0002440 282.7298  79.1668 15.27574146    15
STARLINK-35884          
1 67044C 25294Q   26094.93729167  .00044567  00000+0  16168-2 0   943
2 67044  43.0006 249.4571 0001535 280.8698 232.9334 15.27503566    10
STARLINK-35891          
1 67045C 25294R   26094.90604167  .00041467  00000+0  15036-2 0   942
2 67045  43.0028 250.3073 0001639 278.1402 140.5648 15.27520927    13
STARLINK-35721          
1 67046C 25294S   26094.95465278  .00057849  00000+0  20983-2 0   944
2 67046  43.0047 249.9324 0001684 275.1596  93.6691 15.27501648    14
STARLINK-35779          
1 67047C 25294T   26094.92409722  .00022775  00000+0  82621-3 0   942
2 67047  43.0011 249.8370 0001480 273.5560  40.2493 15.27514762    12
STARLINK-35905          
1 67048C 25294U   26094.91020833  .00024027  00000+0  87157-3 0   945
2 67048  43.0041 250.0704 0001477 275.3603 258.3064 15.27517235    19
STARLINK-35877          
1 67049C 25294V   26095.02131944  .00016408  00000+0  59509-3 0   950
2 67049  43.0032 249.6257 0001487 281.1190  66.4409 15.27525882    12
STARLINK-36078          
1 67050C 25294W   26095.01437500  .00022135  00000+0  80209-3 0   953
2 67050  42.9999 249.1667 0001513 275.6280 238.7779 15.27552710    16
STARLINK-35706          
1 67051C 25294X   26094.96090278  .00055498  00000+0  20121-2 0   947
2 67051  43.0031 249.7097 0001509 274.2679 206.7678 15.27517876    18
STARLINK-35720          
1 67052C 25294Y   26095.01576389  .00022822  00000+0  82691-3 0   954
2 67052  43.0009 249.2954 0001679 267.4297 198.0178 15.27554783    15
STARLINK-35739          
1 67053C 25294Z   26095.02131944  .00018854  00000+0  68390-3 0   950
2 67053  43.0046 249.5039 0001588 274.9003 122.1868 15.27520191    11
STARLINK-35754          
1 67054C 25294AA  26095.02826389  .00013849  00000+0  50203-3 0   958
2 67054  43.0015 249.2614 0001495 278.9168 241.2686 15.27544828    11
STARLINK-35790          
1 67055C 25294AB  26095.00256944  .00023022  00000+0  83467-3 0   953
2 67055  43.0048 249.6448 0001435 278.5170   1.1562 15.27535186    13
STARLINK-36143          
1 67056C 25294AC  26094.92062500  .00025914  00000+0  93992-3 0   942
2 67056  43.0005 249.8022 0001498 275.4781  40.4366 15.27520045    16
STARLINK-36141          
1 67057C 25294AD  26095.02131944  .00002965  00000+0  10729-3 0   953
2 67057  43.0000 249.1812 0001574 286.7266 244.7561 15.27606294    17
STARLINK-35767          
1 67058C 25294AE  26094.92965278  .00051076  00000+0  18520-2 0   949
2 67058  43.0029 250.1565 0001665 277.4662 278.3125 15.27516670    11
STARLINK-36230          
1 67075C 25298A   26094.97687500  .00014468  00000+0  12126-2 0   946
2 67075  69.9999 308.2514 0002622 271.4924  66.7194 14.98319192    13
STARLINK-36240          
1 67076C 25298B   26095.03104167  .00013142  00000+0  11016-2 0   954
2 67076  70.0002 308.0636 0003008 273.7538  41.5758 14.98315173    12
STARLINK-36243          
1 67077C 25298C   26094.96645833  .00018902  00000+0  15843-2 0   946
2 67077  69.9999 308.3776 0001609 275.6592 276.3442 14.98318505    19
STARLINK-36236          
1 67078C 25298D   26094.91229167  .00036754  00000+0  30814-2 0   940
2 67078  70.0000 308.4633 0002574 273.9151  30.9191 14.98296943    19
STARLINK-36159          
1 67079C 25298E   26094.91437500 -.00224320  00000+0 -18784-1 0   944
2 67079  70.0004 308.1899 0003541 257.7272 306.0345 14.98474096    19
STARLINK-36158          
1 67080C 25298F   26094.95812500  .00012004  00000+0  10061-2 0   940
2 67080  70.0008 308.0444 0002113 272.6796 190.4022 14.98323488    16
